# following comet entries are from Jan 1993 Sky and Tel, pg 116
Swift-Tuttle,p,12/12.323/1992,113.43,153.013,.95812,139.456,2000,10,0,0
Schaumasse,p,3/4.10335/1993,11.84605,57.48269,1.2021659,81.05383,2000,10,0,0
Encke,p,2/9.47328/1994,11.94051,186.27004,.3309118,334.72946,2000,10,0,0

# following from sci.astro posting by Jost Jahn dated 20 Aug 94.
# this was converted to xephem format using jost2edb.nawk.
1992j P/Ashbroo,e,12.501,2.666,348.69,3.82799,0,0.39491,0,7/14.052/1993,2000,g5,6
1994a P/Kushida,e,4.184,245.933,214.495,3.78442,0,0.6387,0,12/12.867/1993,2000,g12.2,0.2
1993a Mueller,h,1/12.883/1994,124.878,144.722,130.657,1.00178,1.93753,2000,5.7,3.1
P/Schwassmann-Wac,e,3.753,126.247,358.218,3.44328,0,0.39875,0,1/23.909/1994,2000,g7.5,6
1993h Shoemaker,h,2/2.027/1994,67.767,30.328,232.455,1.0003,4.84924,2000,6,4
P/Tempel 2,e,11.975,118.249,194.883,3.10656,0,0.52245,0,3/16.816/1994,2000,g10,6
1993p Mueller,h,3/26.28/1994,105.026,193.789,261.033,1.00028,0.96728,2000,7.9,2.9
1993v McNaught-,e,51.59,166.356,353.47,139.942,0,0.9938,0,3/31.098/1994,2000,g9,3.1
1993m P/Hartley,e,11.696,287.881,168.425,3.60357,0,0.31701,0,5/20.631/1994,2000,g-9.3,22
1994f Takamizaw,e,132.871,306.831,61.631,3020.58,0,0.99955,0,5/22.537/1994,2000,g7.6,3.3
1994d Shoemaker,e,131.259,166.567,57.477,512.832,0,0.99774,0,5/27.44/1994,2000,g13,4
1992r P/Tuttle,e,54.692,270.548,206.703,5.67182,0,0.82409,0,6/25.291/1994,2000,g9.5,6
1994i Takamizaw,e,135.964,51.128,192.119,640.73,0,0.99696,0,6/29.623/1994,2000,g6.5,4
1993g P/Reinmut,e,6.982,296.17,45.877,3.53257,0,0.46411,0,6/29.676/1994,2000,g10.5,6
P/Kohoutek,e,5.907,269.686,175.802,3.54317,0,0.49631,0,6/29.901/1994,2000,g9.5,6
1993c P/Tempel,e,10.552,68.985,178.902,3.11443,0,0.52025,0,7/3.308/1994,2000,g5.4,10
1994m Nakamura-,p,7/12.902/1994,94.388,123.005,1.14088,158.96,2000,8,4
1994b P/Wild 3,e,15.453,72.626,179.272,3.62732,0,0.36607,0,7/21.241/1994,2000,g8.5,6
1994g P/Harring,e,8.656,119.263,233.453,3.58341,0,0.56134,0,8/23.226/1994,2000,g11,8
1994j P/Brooks,e,5.542,176.947,197.988,3.61957,0,0.49073,0,9/1.078/1994,2000,g9,6
1994o Machholz,p,9/13.758/1994,15.547,140.594,0.75747,252.947,2000,11.5,4
1994k P/Shoemak,e,24.807,92.94,192.154,5.96175,0,0.50612,0,10/14.685/1994,2000,g10,4
1994l P/Borrell,e,30.271,75.424,353.359,3.61909,0,0.6228,0,11/1.492/1994,2000,g9,6
1994n P/McNaugh,e,17.655,38.118,300.216,6.86201,0,0.61969,0,11/11.202/1994,2000,g10,4
1993n P/Whipple,e,9.927,182.495,201.875,4.17364,0,0.25871,0,12/22.427/1994,2000,g6.5,6

# from http://encke.jpl.nasa.gov/eph/95_O1.2000
Hale-Bopp,e,88.87970,282.47330,130.44050,251.01369,0,.996348,0,4/1.39/1997,2000,g0,3
